NORAD_CAT_ID,OBJECT_NAME,OBJECT_TYPE,EPOCH,MEAN_MOTION,ECCENTRICITY,INCLINATION,RA_OF_ASC_NODE,ARG_OF_PERICENTER,MEAN_ANOMALY,BSTAR,MEAN_MOTION_DOT,MEAN_MOTION_DDOT,TLE_LINE0,TLE_LINE1,TLE_LINE2,SEMIMAJOR_AXIS,PERIOD,APOGEE,PERIGEE,DECAYED
53861.0,STARLINK-4781,PAYLOAD,2023-08-27 20:55:58,15.0885806,0.0001446,53.2168,115.941,118.6648,241.449,-0.0001981,-3.441e-05,0.0,0 STARLINK-4781,1 53861U 22114AV  23239.87220069 -.00003441  00000-0 -19810-3 0  9992,2 53861  53.2168 115.9410 0001446 118.6648 241.4490 15.08858060 53496,6917.825,95.436,540.691,538.69,0.0
53861.0,STARLINK-4781,PAYLOAD,2023-08-28 01:42:07,15.08850315,0.0001301,53.2172,115.05,92.8621,267.252,8.0373e-05,9.92e-06,0.0,0 STARLINK-4781,1 53861U 22114AV  23240.07091883  .00000992  00000-0  80373-4 0  9995,2 53861  53.2172 115.0500 0001301  92.8621 267.2520 15.08850315 52984,6917.849,95.437,540.614,538.814,0.0
53861.0,STARLINK-4781,PAYLOAD,2023-08-28 16:00:36,15.08836872,0.0001565,53.2165,112.3709,113.7606,246.355,2.5841e-05,1.23e-06,0.0,0 STARLINK-4781,1 53861U 22114AV  23240.66708736  .00000123  00000-0  25841-4 0  9997,2 53861  53.2165 112.3709 0001565 113.7606 246.3550 15.08836872 53079,6917.89,95.438,540.838,538.672,0.0
53861.0,STARLINK-4781,PAYLOAD,2023-08-28 20:46:45,15.08837805,0.0001333,53.2169,111.4815,87.0486,273.0658,7.3546e-05,8.83e-06,0.0,0 STARLINK-4781,1 53861U 22114AV  23240.86580865  .00000883  00000-0  73546-4 0  9998,2 53861  53.2169 111.4815 0001333  87.0486 273.0658 15.08837805 53649,6917.887,95.438,540.674,538.83,0.0
53861.0,STARLINK-4781,PAYLOAD,2023-08-29 20:37:33,15.08835916,0.0001378,53.2166,107.0228,99.6959,260.4189,-3.7205e-05,-8.8e-06,0.0,0 STARLINK-4781,1 53861U 22114AV  23241.85941086 -.00000880  00000-0 -37205-4 0  9995,2 53861  53.2166 107.0228 0001378  99.6959 260.4189 15.08835916 53794,6917.893,95.438,540.711,538.805,0.0
53861.0,STARLINK-4781,PAYLOAD,2023-08-29 22:12:56,15.08838516,0.0001355,53.2174,106.7251,102.0773,258.0371,2.3635e-05,8.8e-07,0.0,0 STARLINK-4781,1 53861U 22114AV  23241.92565238  .00000088  00000-0  23635-4 0  9994,2 53861  53.2174 106.7251 0001355 102.0773 258.0371 15.08838516 53260,6917.885,95.438,540.687,538.813,0.0
53861.0,STARLINK-4781,PAYLOAD,2023-08-30 07:45:15,15.08840245,0.0001316,53.2171,104.9401,101.5567,258.5572,6.3965e-05,7.3e-06,0.0,0 STARLINK-4781,1 53861U 22114AV  23242.32309090  .00000730  00000-0  63965-4 0  9995,2 53861  53.2171 104.9401 0001316 101.5567 258.5572 15.08840245 53862,6917.88,95.438,540.655,538.834,0.0
53861.0,STARLINK-4781,PAYLOAD,2023-08-31 01:14:29,15.08849846,0.000154,53.2178,101.6729,91.7253,268.3915,0.00010394,1.367e-05,0.0,0 STARLINK-4781,1 53861U 22114AV  23243.05172590  .00001367  00000-0  10394-3 0  9993,2 53861  53.2178 101.6729 0001540  91.7253 268.3915 15.08849846 53436,6917.85,95.437,540.781,538.65,0.0
53861.0,STARLINK-4781,PAYLOAD,2023-08-31 17:08:23,15.08796777,0.0002377,53.2181,98.7014,95.3852,264.7411,0.00074698,0.00011606,0.0,0 STARLINK-4781,1 53861U 22114AV  23243.71415667  .00011606  00000-0  74698-3 0  9995,2 53861  53.2181  98.7014 0002377  95.3852 264.7411 15.08796777 53533,6918.013,95.44,541.522,538.233,0.0
53861.0,STARLINK-4781,PAYLOAD,2023-08-31 23:29:53,15.08837844,0.0001569,53.2178,97.5117,104.1141,256.0026,6.4158e-05,7.33e-06,0.0,0 STARLINK-4781,1 53861U 22114AV  23243.97909655  .00000733  00000-0  64158-4 0  9998,2 53861  53.2178  97.5117 0001569 104.1141 256.0026 15.08837844 53573,6917.887,95.438,540.837,538.667,0.0
53861.0,STARLINK-4781,PAYLOAD,2023-09-01 07:26:50,15.08809267,0.000143,53.2171,96.023,102.0413,258.0739,0.00059084,9.12e-05,0.0,0 STARLINK-4781,1 53861U 22114AV  23244.31031004  .00009120  00000-0  59084-3 0  9991,2 53861  53.2171  96.0230 0001430 102.0413 258.0739 15.08809267 53629,6917.974,95.439,540.829,538.85,0.0
53861.0,STARLINK-4781,PAYLOAD,2023-09-02 00:56:04,15.0884053,0.0001438,53.2173,92.7492,80.5019,279.6136,1.0384e-05,-1.23e-06,0.0,0 STARLINK-4781,1 53861U 22114AV  23245.03894018 -.00000123  00000-0  10384-4 0  9999,2 53861  53.2173  92.7492 0001438  80.5019 279.6136 15.08840530 53734,6917.879,95.438,540.739,538.749,0.0
53861.0,STARLINK-4781,PAYLOAD,2023-09-02 07:17:36,15.08846219,0.0001422,53.2175,91.5593,80.3988,279.7164,6.4204e-05,7.34e-06,0.0,0 STARLINK-4781,1 53861U 22114AV  23245.30389549  .00000734  00000-0  64204-4 0  9994,2 53861  53.2175  91.5593 0001422  80.3988 279.7164 15.08846219 54318,6917.861,95.437,540.71,538.743,0.0
53861.0,STARLINK-4781,PAYLOAD,2023-09-02 16:49:55,15.08848314,0.0001419,53.2165,89.7739,83.7286,276.3868,0.00016768,2.382e-05,0.0,0 STARLINK-4781,1 53861U 22114AV  23245.70133217  .00002382  00000-0  16768-3 0  9999,2 53861  53.2165  89.7739 0001419  83.7286 276.3868 15.08848314 53830,6917.855,95.437,540.702,538.738,0.0
53861.0,STARLINK-4781,PAYLOAD,2023-09-02 20:00:41,15.08854502,0.0001372,53.2156,89.1793,83.5059,276.6089,0.00032746,4.929e-05,0.0,0 STARLINK-4781,1 53861U 22114AV  23245.83381137  .00004929  00000-0  32746-3 0  9992,2 53861  53.2156  89.1793 0001372  83.5059 276.6089 15.08854502 54394,6917.836,95.437,540.65,538.752,0.0
53861.0,STARLINK-4781,PAYLOAD,2023-09-03 07:08:23,15.08850105,0.0001343,53.2154,87.0977,83.3537,276.7608,0.00027471,4.088e-05,0.0,0 STARLINK-4781,1 53861U 22114AV  23246.29749200  .00004088  00000-0  27471-3 0  9997,2 53861  53.2154  87.0977 0001343  83.3537 276.7608 15.08850105 54461,6917.85,95.437,540.644,538.785,0.0
53861.0,STARLINK-4781,PAYLOAD,2023-09-03 16:40:42,15.08839986,0.0001412,53.2157,85.314,83.621,276.4943,0.00011796,1.59e-05,0.0,0 STARLINK-4781,1 53861U 22114AV  23246.69493678  .00001590  00000-0  11796-3 0  9994,2 53861  53.2157  85.3140 0001412  83.6210 276.4943 15.08839986 53984,6917.88,95.438,540.722,538.769,0.0
53861.0,STARLINK-4781,PAYLOAD,2023-09-04 13:20:43,15.0883605,0.0001476,53.2164,81.4472,94.4086,265.7075,-5.7494e-05,-1.203e-05,0.0,0 STARLINK-4781,1 53861U 22114AV  23247.55605694 -.00001203  00000-0 -57494-4 0  9992,2 53861  53.2164  81.4472 0001476  94.4086 265.7075 15.08836050 54659,6917.892,95.438,540.779,538.736,0.0
53861.0,STARLINK-4781,PAYLOAD,2023-09-04 19:42:15,15.08841999,0.0001465,53.217,80.2576,91.6975,268.4185,-3.2865e-05,-8.11e-06,0.0,0 STARLINK-4781,1 53861U 22114AV  23247.82101713 -.00000811  00000-0 -32865-4 0  9994,2 53861  53.2170  80.2576 0001465  91.6975 268.4185 15.08841999 54157,6917.874,95.437,540.753,538.726,0.0
53861.0,STARLINK-4781,PAYLOAD,2023-09-05 13:11:30,15.08839955,0.0001275,53.2169,76.9857,93.3893,266.7245,8.3444e-05,1.04e-05,0.0,0 STARLINK-4781,1 53861U 22114AV  23248.54965433  .00001040  00000-0  83444-4 0  9993,2 53861  53.2169  76.9857 0001275  93.3893 266.7245 15.08839955 54805,6917.881,95.438,540.628,538.863,0.0
53861.0,STARLINK-4781,PAYLOAD,2023-09-06 05:05:21,15.08842819,0.0001261,53.2171,74.0124,88.7056,271.408,0.00013726,1.897e-05,0.0,0 STARLINK-4781,1 53861U 22114AV  23249.21205216  .00001897  00000-0  13726-3 0  9999,2 53861  53.2171  74.0124 0001261  88.7056 271.4080 15.08842819 54362,6917.872,95.437,540.609,538.864,0.0
53861.0,STARLINK-4781,PAYLOAD,2023-09-06 13:02:17,15.0883413,0.000143,53.2186,72.5284,91.9098,268.2058,8.604e-05,1.081e-05,0.0,0 STARLINK-4781,1 53861U 22114AV  23249.54326049  .00001081  00000-0  86040-4 0  9998,2 53861  53.2186  72.5284 0001430  91.9098 268.2058 15.08834130 54959,6917.898,95.438,540.753,538.774,0.0
53861.0,STARLINK-4781,PAYLOAD,2023-09-06 19:23:50,15.0883714,0.0001455,53.2188,71.339,92.2493,267.8666,0.00010371,1.363e-05,0.0,0 STARLINK-4781,1 53861U 22114AV  23249.80821910  .00001363  00000-0  10371-3 0  9990,2 53861  53.2188  71.3390 0001455  92.2493 267.8666 15.08837140 54994,6917.889,95.438,540.761,538.748,0.0
53861.0,STARLINK-4781,PAYLOAD,2023-09-07 12:53:04,15.08850369,0.0001843,53.2195,68.066,102.3041,257.8158,-9.7738e-05,-1.844e-05,0.0,0 STARLINK-4781,1 53861U 22114AV  23250.53685691 -.00001844  00000-0 -97738-4 0  9995,2 53861  53.2195  68.0660 0001843 102.3041 257.8158 15.08850369 55105,6917.849,95.437,540.989,538.439,0.0
53861.0,STARLINK-4781,PAYLOAD,2023-09-07 20:49:59,15.08846246,0.0001625,53.2197,66.5793,95.0823,265.0355,3.1503e-05,2.13e-06,0.0,0 STARLINK-4781,1 53861U 22114AV  23250.86805523  .00000213  00000-0  31503-4 0  9994,2 53861  53.2197  66.5793 0001625  95.0823 265.0355 15.08846246 55155,6917.861,95.437,540.85,538.602,0.0
53861.0,STARLINK-4781,PAYLOAD,2023-09-08 04:46:56,15.08839029,0.0001628,53.2199,65.0926,88.5461,271.5718,4.5186e-05,4.31e-06,0.0,0 STARLINK-4781,1 53861U 22114AV  23251.19925998  .00000431  00000-0  45186-4 0  9994,2 53861  53.2199  65.0926 0001628  88.5461 271.5718 15.08839029 54668,6917.883,95.438,540.875,538.622,0.0
53861.0,STARLINK-4781,PAYLOAD,2023-09-08 12:43:51,15.08837463,0.0001584,53.2182,63.605,88.3201,271.7972,7.8951e-05,9.69e-06,0.0,0 STARLINK-4781,1 53861U 22114AV  23251.53046044  .00000969  00000-0  78951-4 0  9990,2 53861  53.2182  63.6050 0001584  88.3201 271.7972 15.08837463 55253,6917.888,95.438,540.849,538.657,0.0
53861.0,STARLINK-4781,PAYLOAD,2023-09-08 19:05:24,15.08842181,0.0001411,53.2184,62.415,86.5628,273.5526,7.5592e-05,9.15e-06,0.0,0 STARLINK-4781,1 53861U 22114AV  23251.79541723  .00000915  00000-0  75592-4 0  9991,2 53861  53.2184  62.4150 0001411  86.5628 273.5526 15.08842181 55297,6917.874,95.437,540.715,538.763,0.0
53861.0,STARLINK-4781,PAYLOAD,2023-09-09 10:59:15,15.08837421,0.000137,53.2186,59.4419,86.777,273.3379,5.9987e-05,6.67e-06,0.0,0 STARLINK-4781,1 53861U 22114AV  23252.45782094  .00000667  00000-0  59987-4 0  9997,2 53861  53.2186  59.4419 0001370  86.7770 273.3379 15.08837421 54853,6917.888,95.438,540.701,538.806,0.0
53861.0,STARLINK-4781,PAYLOAD,2023-09-09 18:56:10,15.08847818,0.0001293,53.2186,57.9554,84.4342,275.6797,7.8522e-05,9.62e-06,0.0,0 STARLINK-4781,1 53861U 22114AV  23252.78901400  .00000962  00000-0  78522-4 0  9991,2 53861  53.2186  57.9554 0001293  84.4342 275.6797 15.08847818 54906,6917.856,95.437,540.616,538.827,0.0
